      2.10          N: GNSS NAV DATA                        RINEX VERSION / TYPE
fic2rin                                 02/26/2022 00:17:38 PGM / RUN BY / DATE
                                                            END OF HEADER
 3 22  2 25  1 59 44.0-1.369128003716e-04-1.762145984685e-11 0.000000000000e+00
    3.000000000000e+01-8.915625000000e+01 4.106242470052e-09 1.244115809252e+00
   -4.615634679794e-06 3.886487334967e-03 9.180977940559e-06 5.153679533005e+03
    4.391840000000e+05-8.009374141693e-08-1.002690445945e+00 9.685754776001e-08
    9.725720275059e-01 2.089062500000e+02 9.534954689592e-01-7.832826268654e-09
    1.500062483624e-10 1.000000000000e+00 2.198000000000e+03 0.000000000000e+00
    2.400000000000e+00 0.000000000000e+00 1.862645149231e-09 3.000000000000e+01
    4.320000000000e+05 4.000000000000e+00
 8 22  2 25  1 59 44.0-5.751568824053e-05-1.477928890381e-12 0.000000000000e+00
    2.000000000000e+01 6.821875000000e+01 4.595548565901e-09-1.638170063650e+00
    3.257766366005e-06 7.339895935729e-03 3.684312105179e-06 5.153725866318e+03
    4.391840000000e+05 3.725290298462e-09-3.117743414048e+00-1.341104507446e-07
    9.648895790439e-01 3.109375000000e+02 1.134026782367e-01-8.309631843806e-09
    2.221521106700e-10 1.000000000000e+00 2.198000000000e+03 0.000000000000e+00
    2.400000000000e+00 0.000000000000e+00 5.122274160385e-09 2.000000000000e+01
    4.320000000000e+05 4.000000000000e+00
26 22  2 25  1 59 44.0 1.860503107309e-04 3.183231456205e-12 0.000000000000e+00
    3.300000000000e+01 8.890625000000e+01 4.867345601624e-09 1.603134885803e-01
    4.671514034271e-06 6.904783658683e-03 8.486211299896e-06 5.153711553574e+03
    4.391840000000e+05 1.024454832077e-07 2.086157287316e+00 5.215406417847e-08
    9.382874465926e-01 2.039687500000e+02 3.725515296037e-01-8.271773123981e-09
   -1.682212928064e-10 1.000000000000e+00 2.198000000000e+03 0.000000000000e+00
    2.400000000000e+00 0.000000000000e+00 6.984919309616e-09 3.300000000000e+01
    4.320000000000e+05 4.000000000000e+00
 2 22  2 25  2  0  0.0-6.514382548630e-04-5.684341886081e-13 0.000000000000e+00
    5.600000000000e+01-5.562500000000e+01 4.423755695753e-09 2.535973218561e+00
   -2.795830368996e-06 2.063237200491e-02 3.209337592125e-06 5.153704099655e+03
    4.392000000000e+05 2.775341272354e-07-2.127497734249e+00-1.713633537292e-07
    9.652047793733e-01 3.137500000000e+02-1.438873752284e+00-7.921758544469e-09
   -2.014369620866e-10 1.000000000000e+00 2.198000000000e+03 0.000000000000e+00
    2.400000000000e+00 0.000000000000e+00-1.769512891769e-08 5.600000000000e+01
    4.320000000000e+05 4.000000000000e+00
 1 22  2 25  2  0  0.0 4.231194034219e-04-9.322320693173e-12 0.000000000000e+00
    1.000000000000e+02-7.896875000000e+01 3.971951161995e-09 2.394485085012e+00
   -4.256144165993e-06 1.144255616236e-02 4.002824425697e-06 5.153674415588e+03
    4.392000000000e+05-4.470348358154e-08-2.038021919451e+00-1.788139343262e-07
    9.868691317463e-01 3.173125000000e+02 8.830903069074e-01-7.873899408087e-09
   -8.464638300447e-11 1.000000000000e+00 2.198000000000e+03 0.000000000000e+00
    2.400000000000e+00 0.000000000000e+00 5.122274160385e-09 1.000000000000e+02
    4.320000000000e+05 4.000000000000e+00
10 22  2 25  2  0  0.0-3.299135714769e-04-1.080024958355e-11 0.000000000000e+00
    2.900000000000e+01-7.328125000000e+01 4.191246010791e-09 3.572298531316e-01
   -3.736466169357e-06 7.537881378084e-03 9.275972843170e-06 5.153682493210e+03
    4.392000000000e+05-2.607703208923e-08-1.005475550847e+00 1.192092895508e-07
    9.723959580005e-01 2.047812500000e+02-2.508327351114e+00-7.934259065166e-09
    1.250052069686e-10 1.000000000000e+00 2.198000000000e+03 0.000000000000e+00
    2.400000000000e+00 0.000000000000e+00 2.328306436539e-09 2.900000000000e+01
    4.320000000000e+05 4.000000000000e+00
 5 22  2 25  2  0  0.0-7.261382415891e-05-1.364242052659e-12 0.000000000000e+00
    8.800000000000e+01-7.600000000000e+01 4.419112645208e-09-1.231824035078e+00
   -3.974884748459e-06 5.853560403921e-03 8.787959814072e-06 5.153675201416e+03
    4.392000000000e+05 1.117587089539e-07-1.043225019584e+00 9.872019290924e-08
    9.595530616251e-01 2.092812500000e+02 1.007837486214e+00-7.977832308738e-09
    6.035965707914e-11 1.000000000000e+00 2.198000000000e+03 0.000000000000e+00
    2.400000000000e+00 0.000000000000e+00-1.117587089539e-08 8.800000000000e+01
    4.320000000000e+05 4.000000000000e+00
 7 22  2 25  2  0  0.0 3.125984221697e-04 2.501110429876e-12 0.000000000000e+00
    5.700000000000e+01 1.093750000000e+01 4.910918845196e-09 1.723522140598e+00
    4.936009645462e-07 1.558544859290e-02 8.335337042809e-06 5.153684543610e+03
    4.392000000000e+05-3.855675458908e-07 1.097112887087e+00-1.005828380585e-07
    9.508151660453e-01 2.172812500000e+02-2.289141422054e+00-8.200698734876e-09
   -3.125130174216e-10 1.000000000000e+00 2.198000000000e+03 0.000000000000e+00
    2.400000000000e+00 0.000000000000e+00-1.117587089539e-08 5.700000000000e+01
    4.320000000000e+05 4.000000000000e+00
 6 22  2 25  2  0  0.0 2.122581936419e-04 1.216449163621e-11 0.000000000000e+00
    8.500000000000e+01-6.431250000000e+01 4.121243094889e-09 2.709587252568e+00
   -3.127381205559e-06 2.688378910534e-03 3.987923264503e-06 5.153676540375e+03
    4.392000000000e+05 9.685754776001e-08-2.046293607908e+00 3.166496753693e-08
    9.862441365698e-01 3.163750000000e+02-9.439924072443e-01-7.994975879979e-09
   -7.214586230761e-11 1.000000000000e+00 2.198000000000e+03 0.000000000000e+00
    2.400000000000e+00 0.000000000000e+00 3.725290298462e-09 8.500000000000e+01
    4.320000000000e+05 4.000000000000e+00
 4 22  2 25  2  0  0.0-1.874929293990e-04 2.387423592154e-12 0.000000000000e+00
    2.190000000000e+02-1.137500000000e+01 4.569833209039e-09-2.114526039640e+00
   -6.686896085739e-07 1.721572945826e-03 8.285045623779e-06 5.153643320084e+03
    4.392000000000e+05-2.235174179077e-08 7.846923902735e-02 2.607703208923e-08
    9.615224009817e-01 2.209375000000e+02-3.050572484452e+00-7.864970464732e-09
    2.514390448740e-10 1.000000000000e+00 2.198000000000e+03 0.000000000000e+00
    2.400000000000e+00 0.000000000000e+00-4.190951585770e-09 7.310000000000e+02
    4.320000000000e+05 4.000000000000e+00
 9 22  2 25  2  0  0.0-3.526634536684e-04 1.818989403546e-12 0.000000000000e+00
    7.500000000000e+01-1.084375000000e+01 4.778770483544e-09-1.261286023157e+00
   -5.867332220078e-07 2.233772189356e-03 8.339062333107e-06 5.153611295700e+03
    4.392000000000e+05-7.450580596924e-09 2.545500864614e-02 1.490116119385e-08
    9.545206248954e-01 2.159687500000e+02 1.876807081691e+00-8.036406177146e-09
    2.528676758108e-10 1.000000000000e+00 2.198000000000e+03 0.000000000000e+00
    2.400000000000e+00 0.000000000000e+00 1.396983861923e-09 7.500000000000e+01
    4.320000000000e+05 4.000000000000e+00
11 22  2 25  2  0  0.0-7.859990000725e-05 1.102762325900e-11 0.000000000000e+00
    1.640000000000e+02-6.546875000000e+01 4.566975947165e-09-1.716830699176e+00
   -3.313645720482e-06 2.745531965047e-04 4.328787326813e-06 5.153779582977e+03
    4.392000000000e+05 5.587935447693e-09-1.994471350012e+00-8.195638656616e-08
    9.619679414603e-01 2.944375000000e+02 2.811619196688e+00-8.271415966247e-09
   -8.714648714384e-11 1.000000000000e+00 2.198000000000e+03 0.000000000000e+00
    1.920000000000e+02 6.300000000000e+01-8.847564458847e-09 1.640000000000e+02
    4.320000000000e+05 4.000000000000e+00
31 22  2 25  2  0  0.0-1.662811264396e-04-1.705302565824e-12 0.000000000000e+00
    3.000000000000e+01 2.000000000000e+01 4.695195573742e-09 1.270480324308e+00
    1.210719347000e-06 1.045814796817e-02 8.234754204750e-06 5.153688547134e+03
    4.392000000000e+05-7.078051567078e-08 1.115249339366e+00 9.872019290924e-08
    9.550312359701e-01 2.192812500000e+02 3.779029322140e-01-8.019619763639e-09
   -3.910877189447e-10 1.000000000000e+00 2.198000000000e+03 0.000000000000e+00
    2.400000000000e+00 0.000000000000e+00-1.350417733192e-08 3.000000000000e+01
    4.320000000000e+05 4.000000000000e+00
27 22  2 25  2  0  0.0 1.328592188656e-04 1.489297574153e-11 0.000000000000e+00
    1.800000000000e+01 6.609375000000e+01 4.389111395536e-09-1.668870669356e+00
    3.302469849586e-06 1.029804709833e-02 3.246590495110e-06 5.153651336670e+03
    4.392000000000e+05 9.872019290924e-08-3.098246898534e+00-1.396983861923e-07
    9.735980480266e-01 3.213125000000e+02 6.426627985594e-01-8.142482024202e-09
    2.235807416067e-10 1.000000000000e+00 2.198000000000e+03 0.000000000000e+00
    2.400000000000e+00 0.000000000000e+00 1.396983861923e-09 1.800000000000e+01
    4.320000000000e+05 4.000000000000e+00
24 22  2 25  2  0  0.0 2.725459635258e-04-2.501110429876e-12 0.000000000000e+00
    3.800000000000e+01 9.843750000000e+00 5.095569393776e-09 2.690236325198e+00
    4.228204488754e-07 1.235988806002e-02 7.739290595055e-06 5.153692533493e+03
    4.392000000000e+05-2.048909664154e-08 1.014187881933e+00-1.378357410431e-07
    9.343497729041e-01 2.153750000000e+02 8.088641271805e-01-8.096051518757e-09
   -1.928651764659e-10 1.000000000000e+00 2.198000000000e+03 0.000000000000e+00
    2.400000000000e+00 0.000000000000e+00 2.328306436539e-09 3.800000000000e+01
    4.320000000000e+05 4.000000000000e+00
12 22  2 25  2  0  0.0-1.760916784406e-04-5.684341886081e-12 0.000000000000e+00
    8.100000000000e+01 7.265625000000e+01 4.178745490094e-09 1.077188753304e+00
    3.730878233910e-06 8.703073137440e-03 8.562579751015e-06 5.153600954056e+03
    4.392000000000e+05-1.378357410431e-07 2.210200498739e+00-1.862645149231e-09
    9.700632488109e-01 2.187812500000e+02 1.249173449134e+00-7.999261772790e-09
   -1.478633019572e-10 1.000000000000e+00 2.198000000000e+03 0.000000000000e+00
    2.400000000000e+00 0.000000000000e+00-1.257285475731e-08 8.100000000000e+01
    4.320000000000e+05 4.000000000000e+00
